NORAD_CAT_ID,OBJECT_NAME,OBJECT_TYPE,EPOCH,MEAN_MOTION,ECCENTRICITY,INCLINATION,RA_OF_ASC_NODE,ARG_OF_PERICENTER,MEAN_ANOMALY,BSTAR,MEAN_MOTION_DOT,MEAN_MOTION_DDOT,TLE_LINE0,TLE_LINE1,TLE_LINE2,SEMIMAJOR_AXIS,PERIOD,APOGEE,PERIGEE,DECAYED
52118.0,STARLINK-3743,PAYLOAD,2022-10-27 10:53:03,15.0884297,0.000185,53.2184,197.3687,52.187,307.9290000000001,0.00023533,3.459e-05,0.0,0 STARLINK-3743,1 52118U 22029AG  22300.45351095  .00003459  00000-0  23533-3 0  9991,2 52118  53.2184 197.3687 0001850  52.1870 307.9290 15.08842970 35215,6917.871,95.437,541.016,538.457,0.0
52118.0,STARLINK-3743,PAYLOAD,2022-10-27 20:25:21,15.08856122,0.0001849,53.2183,195.5843,51.8702,308.2457,0.0002647,3.929e-05,0.0,0 STARLINK-3743,1 52118U 22029AG  22300.85094096  .00003929  00000-0  26470-3 0  9995,2 52118  53.2183 195.5843 0001849  51.8702 308.2457 15.08856122 35275,6917.831,95.437,540.975,538.4169999999998,0.0
52118.0,STARLINK-3743,PAYLOAD,2022-10-28 02:46:54,15.08854778,0.000177,53.2176,194.3951,51.7534,308.3618,0.00020313,2.947e-05,0.0,0 STARLINK-3743,1 52118U 22029AG  22301.11590546  .00002947  00000-0  20313-3 0  9995,2 52118  53.2176 194.3951 0001770  51.7534 308.3618 15.08854778 35319,6917.835,95.437,540.925,538.476,0.0
52118.0,STARLINK-3743,PAYLOAD,2022-10-28 20:16:08,15.08855568,0.0001847,53.2159,191.125,46.898,313.2166,0.00016256,2.301e-05,0.0,0 STARLINK-3743,1 52118U 22029AG  22301.84453931  .00002301  00000-0  16256-3 0  9996,2 52118  53.2159 191.1250 0001847  46.8980 313.2166 15.08855568 35425,6917.833000000001,95.437,540.976,538.42,0.0
52118.0,STARLINK-3743,PAYLOAD,2022-10-29 02:37:41,15.08843683,0.0001712,53.2186,189.9346,50.3038,309.8104,4.5239e-05,4.32e-06,0.0,0 STARLINK-3743,1 52118U 22029AG  22302.10950527  .00000432  00000-0  45239-4 0  9996,2 52118  53.2186 189.9346 0001712  50.3038 309.8104 15.08843683 35463,6917.869000000002,95.437,540.918,538.55,0.0
52118.0,STARLINK-3743,PAYLOAD,2022-10-29 18:31:32,15.08849909,0.0001567,53.2177,186.9597,53.7731,306.3406,-7.128e-05,-1.423e-05,0.0,0 STARLINK-3743,1 52118U 22029AG  22302.77190019 -.00001423  00000-0 -71280-4 0  9999,2 52118  53.2177 186.9597 0001567  53.7731 306.3406 15.08849909 35568,6917.85,95.437,540.799,538.631,0.0
52118.0,STARLINK-3743,PAYLOAD,2022-10-30 04:03:49,15.08863675,0.0001795,53.218,185.1772,50.6011,309.514,1.7223e-05,-1.4e-07,0.0,0 STARLINK-3743,1 52118U 22029AG  22303.16932543 -.00000014  00000-0  17223-4 0  9990,2 52118  53.2180 185.1772 0001795  50.6011 309.5140 15.08863675 35621,6917.808000000001,95.436,540.915,538.431,0.0
52118.0,STARLINK-3743,PAYLOAD,2022-10-30 21:33:05,15.0883073,0.0001776,53.2171,181.9045,34.087,326.0236,-3.475e-06,-3.43e-06,0.0,0 STARLINK-3743,1 52118U 22029AG  22303.89798378 -.00000343  00000-0 -34750-5 0  9997,2 52118  53.2171 181.9045 0001776  34.0870 326.0236 15.08830730 35734,6917.909000000002,95.438,541.002,538.545,0.0
52118.0,STARLINK-3743,PAYLOAD,2022-10-31 08:40:49,15.08817397,0.0001786999999999,53.2187,179.8274,53.363,306.7526,-8.4411e-05,-1.63e-05,0.0,0 STARLINK-3743,1 52118U 22029AG  22304.36167944 -.00001630  00000-0 -84411-4 0  9997,2 52118  53.2187 179.8274 0001787  53.3630 306.7526 15.08817397 35800,6917.949000000001,95.439,541.0509999999998,538.578,0.0
52118.0,STARLINK-3743,PAYLOAD,2022-10-31 18:13:07,15.08830759,0.0001786999999999,53.2176,178.0406,46.0399,314.0741,-9.5642e-05,-1.810000000000001e-05,0.0,0 STARLINK-3743,1 52118U 22029AG  22304.75911463 -.00001810  00000-0 -95642-4 0  9991,2 52118  53.2176 178.0406 0001787  46.0399 314.0741 15.08830759 35861,6917.909000000002,95.438,541.01,538.5369999999998,0.0
52118.0,STARLINK-3743,PAYLOAD,2022-11-01 02:10:02,15.08841169,0.000186,53.2179,176.5544,51.2821,308.8337,1.3017e-05,-8.1e-07,0.0,0 STARLINK-3743,1 52118U 22029AG  22305.09030685 -.00000081  00000-0  13017-4 0  9991,2 52118  53.2179 176.5544 0001860  51.2821 308.8337 15.08841169 35915,6917.877,95.437,541.029,538.455,0.0
52118.0,STARLINK-3743,PAYLOAD,2022-11-01 08:31:35,15.08840333,0.0001899,53.2179,175.3649,51.3357,308.7805,-1.7147e-05,-5.61e-06,0.0,0 STARLINK-3743,1 52118U 22029AG  22305.35526880 -.00000561  00000-0 -17147-4 0  9999,2 52118  53.2179 175.3649 0001899  51.3357 308.7805 15.08840333 35950,6917.879,95.438,541.058,538.431,0.0
52118.0,STARLINK-3743,PAYLOAD,2022-11-01 18:03:54,15.08838557,0.0002188,53.2179,173.5811,55.1449,304.9749,1.8255e-05,2e-08,0.0,0 STARLINK-3743,1 52118U 22029AG  22305.75271158  .00000002  00000-0  18255-4 0  9997,2 52118  53.2179 173.5811 0002188  55.1449 304.9749 15.08838557 36015,6917.885,95.438,541.263,538.236,0.0
52118.0,STARLINK-3743,PAYLOAD,2022-11-02 02:00:50,15.08834589,0.0002048,53.2166,172.0941,48.3939,311.7229,0.00025489,3.77e-05,0.0,0 STARLINK-3743,1 52118U 22029AG  22306.08391489  .00003770  00000-0  25489-3 0  9995,2 52118  53.2166 172.0941 0002048  48.3939 311.7229 15.08834589 36067,6917.897,95.438,541.179,538.345,0.0
52118.0,STARLINK-3743,PAYLOAD,2022-11-02 08:22:22,15.08837799,0.0002018,53.2169,170.9048,50.7669,309.3502,0.00035971,5.441e-05,0.0,0 STARLINK-3743,1 52118U 22029AG  22306.34887541  .00005441  00000-0  35971-3 0  9997,2 52118  53.2169 170.9048 0002018  50.7669 309.3502 15.08837799 36107,6917.887,95.438,541.148,538.356,0.0
52118.0,STARLINK-3743,PAYLOAD,2022-11-02 21:05:28,15.08843,0.0002984,53.2163,168.5263,61.6259,298.5034,0.00026768,3.975e-05,0.0,0 STARLINK-3743,1 52118U 22029AG  22306.87879815  .00003975  00000-0  26768-3 0  9994,2 52118  53.2163 168.5263 0002984  61.6259 298.5034 15.08843000 36180,6917.871,95.437,541.8009999999998,537.672,0.0
52118.0,STARLINK-3743,PAYLOAD,2022-11-03 01:51:38,15.08831023,0.0001958,53.2168,167.6343,52.1066,308.0103,4.3751e-05,4.08e-06,0.0,0 STARLINK-3743,1 52118U 22029AG  22307.07752397  .00000408  00000-0  43751-4 0  9992,2 52118  53.2168 167.6343 0001958  52.1066 308.0103 15.08831023 36215,6917.908,95.438,541.127,538.418,0.0
52118.0,STARLINK-3743,PAYLOAD,2022-11-03 03:27:01,15.08830804,0.0001923,53.2162,167.3365,52.117,307.9996,3.6914e-05,2.99e-06,0.0,0 STARLINK-3743,1 52118U 22029AG  22307.14376306  .00000299  00000-0  36914-4 0  9993,2 52118  53.2162 167.3365 0001923  52.1170 307.9996 15.08830804 36223,6917.908,95.438,541.104,538.443,0.0
52118.0,STARLINK-3743,PAYLOAD,2022-11-03 20:56:15,15.08849359,0.0001909,53.2165,164.0655,51.5189,308.5975,0.00052049,8.007e-05,0.0,0 STARLINK-3743,1 52118U 22029AG  22307.87240074  .00008007  00000-0  52049-3 0  9996,2 52118  53.2165 164.0655 0001909  51.5189 308.5975 15.08849359 36330,6917.852,95.437,541.0369999999998,538.396,0.0
52118.0,STARLINK-3743,PAYLOAD,2022-11-04 01:42:24,15.08861291,0.0001872,53.2163,163.173,52.4354,307.6808,0.0011239,0.00017655,0.0,0 STARLINK-3743,1 52118U 22029AG  22308.07111964  .00017655  00000-0  11239-2 0  9998,2 52118  53.2163 163.1730 0001872  52.4354 307.6808 15.08861291 36362,6917.815,95.436,540.975,538.385,0.0
52118.0,STARLINK-3743,PAYLOAD,2022-11-04 08:03:56,15.08865453,0.0001903,53.2165,161.9835,52.5558,307.5607,0.00092374,0.00014454,0.0,0 STARLINK-3743,1 52118U 22029AG  22308.33607593  .00014454  00000-0  92374-3 0  9999,2 52118  53.2165 161.9835 0001903  52.5558 307.5607 15.08865453 36403,6917.803000000001,95.436,540.984,538.351,0.0
52118.0,STARLINK-3743,PAYLOAD,2022-11-04 17:36:15,15.08854595,0.0001815,53.2163,160.1993,53.5569,306.559,0.0002562,3.793e-05,0.0,0 STARLINK-3743,1 52118U 22029AG  22308.73351448  .00003793  00000-0  25620-3 0  9992,2 52118  53.2163 160.1993 0001815  53.5569 306.5590 15.08854595 36463,6917.8359999999975,95.437,540.956,538.445,0.0
52118.0,STARLINK-3743,PAYLOAD,2022-11-04 23:57:48,15.08854307,0.0001814,53.2167,159.0103,44.9571,315.1568,0.00035541,5.375e-05,0.0,0 STARLINK-3743,1 52118U 22029AG  22308.99847354  .00005375  00000-0  35541-3 0  9997,2 52118  53.2167 159.0103 0001814  44.9571 315.1568 15.08854307 36500,6917.837,95.437,540.957,538.447,0.0
52118.0,STARLINK-3743,PAYLOAD,2022-11-05 20:37:49,15.08821271,0.0001683,53.2165,155.1434,51.2942,308.82,-0.00028394,-4.802e-05,0.0,0 STARLINK-3743,1 52118U 22029AG  22309.85960341 -.00004802  00000-0 -28394-3 0  9999,2 52118  53.2165 155.1434 0001683  51.2942 308.8200 15.08821271 36639,6917.938,95.439,540.967,538.638,0.0
52118.0,STARLINK-3743,PAYLOAD,2022-11-06 12:31:41,15.08828948,0.0001696999999999,53.2197,152.1686,44.3111,315.8017,-3.5676e-06,-3.45e-06,0.0,0 STARLINK-3743,1 52118U 22029AG  22310.52201033 -.00000345  00000-0 -35676-5 0  9992,2 52118  53.2197 152.1686 0001697  44.3111 315.8017 15.08828948 36739,6917.9140000000025,95.438,540.953,538.605,0.0
52118.0,STARLINK-3743,PAYLOAD,2022-11-06 18:53:14,15.08841305,0.0001861,53.2168,150.9825,49.2059,310.9094,0.00042112,6.421e-05,0.0,0 STARLINK-3743,1 52118U 22029AG  22310.78696817  .00006421  00000-0  42112-3 0  9998,2 52118  53.2168 150.9825 0001861  49.2059 310.9094 15.08841305 36773,6917.876,95.437,541.029,538.4540000000002,0.0
52118.0,STARLINK-3743,PAYLOAD,2022-11-07 13:57:51,15.08842168,0.0001739,53.2166,147.4124,49.8535,310.2609,0.0002881,4.3e-05,0.0,0 STARLINK-3743,1 52118U 22029AG  22311.58184769  .00004300  00000-0  28810-3 0  9998,2 52118  53.2166 147.4124 0001739  49.8535 310.2609 15.08842168 36899,6917.874,95.437,540.942,538.536,0.0
52118.0,STARLINK-3743,PAYLOAD,2022-11-08 05:51:42,15.08854264,0.0001695,53.2156,144.4396,48.2137,311.8999,0.00028779,4.297e-05,0.0,0 STARLINK-3743,1 52118U 22029AG  22312.24423977  .00004297  00000-0  28779-3 0  9998,2 52118  53.2156 144.4396 0001695  48.2137 311.8999 15.08854264 36998,6917.837,95.437,540.874,538.529,0.0
52118.0,STARLINK-3743,PAYLOAD,2022-11-08 21:45:33,15.08852702,0.0001720999999999,53.2155,141.4656,48.4118,311.7021,0.00018682,2.687e-05,0.0,0 STARLINK-3743,1 52118U 22029AG  22312.90663590  .00002687  00000-0  18682-3 0  9991,2 52118  53.2155 141.4656 0001721  48.4118 311.7021 15.08852702 37096,6917.842,95.437,540.8969999999998,538.516,0.0
